STARLINK-11702 [DTC]    
1 63752U 25089B   25144.91668981 -.00070214  00000+0 -40336-3 0  9995
2 63752  42.9970 234.7438 0001621 267.2372 258.8869 15.77887377  4736
STARLINK-11706 [DTC]    
1 63753U 25089C   25144.91668981 -.00061695  00000+0 -35367-3 0  9997
2 63753  42.9970 234.6757 0001667 269.2453 284.6258 15.77890232  4735
STARLINK-11662 [DTC]    
1 63754U 25089D   25144.91668981 -.00049234  00000+0 -28127-3 0  9999
2 63754  42.9976 234.6078 0001689 269.5472 312.0707 15.77887865  4784
STARLINK-11681 [DTC]    
1 63755U 25089E   25144.91668981 -.00072098  00000+0 -41419-3 0  9993
2 63755  42.9977 234.5387 0001688 271.0946 338.2760 15.77895772  4731
STARLINK-11688 [DTC]    
1 63756U 25089F   25144.91668981 -.00060777  00000+0 -34839-3 0  9993
2 63756  42.9985 234.4696 0001796 270.4473   6.6769 15.77885812  4617
STARLINK-11676 [DTC]    
1 63757U 25089G   25144.91668981 -.00046619  00000+0 -26617-3 0  9998
2 63757  42.9985 234.4000 0001704 271.5085  33.3617 15.77881981  4620
STARLINK-11705 [DTC]    
1 63758U 25089H   25144.91668981 -.00057718  00000+0 -33063-3 0  9994
2 63758  42.9991 234.3310 0001700 272.3714  60.2557 15.77883529  4683
STARLINK-11703 [DTC]    
1 63759U 25089J   25144.91668981 -.00067493  00000+0 -38743-3 0  9996
2 63759  42.9991 234.2617 0001652 259.9120 100.4622 15.77890701  4737
STARLINK-11701 [DTC]    
1 63760U 25089K   25144.91668981 -.00035751  00000+0 -20347-3 0  9991
2 63760  42.9990 234.1933 0001637 262.8003 125.3761 15.77851836  4730
STARLINK-11660 [DTC]    
1 63761U 25089L   25144.91668981 -.00013323  00000+0 -73795-4 0  9999
2 63761  42.9992 234.1249 0001586 272.7664 143.1176 15.77861592  4681
STARLINK-11699 [DTC]    
1 63762U 25089M   25144.91668981 -.00035760  00000+0 -20333-3 0  9998
2 63762  42.9991 234.0558 0001790 275.3041 168.3292 15.77872053  4736
STARLINK-11693 [DTC]    
1 63763U 25089N   25144.91668981 -.00040767  00000+0 -23222-3 0  9992
2 63763  42.9992 233.9866 0001787 273.9574 197.4141 15.77883238  4620
STARLINK-33760          
1 63764U 25089P   25144.91668981 -.00028345  00000+0 -67351-3 0  9992
2 63764  43.0001 236.9389 0001335 259.3189  97.8384 15.40713128  4853
STARLINK-33941          
1 63765U 25089Q   25144.91668981 -.01519005  00000+0 -38307-1 0  9999
2 63765  43.0001 236.8812 0001528 267.9592 112.8386 15.42214371  4848
STARLINK-33824          
1 63766U 25089R   25144.91668981 -.00037429  00000+0 -89225-3 0  9991
2 63766  43.0001 236.9687 0001010 271.4963  73.1857 15.40730822  4853
STARLINK-33808          
1 63767U 25089S   25144.91668981 -.01544589  00000+0 -36538-1 0  9990
2 63767  42.9999 236.8330 0001596 279.0239 121.4193 15.44145451  4842
STARLINK-33844          
1 63768U 25089T   25144.91668981 -.00023081  00000+0 -54680-3 0  9999
2 63768  43.0002 236.9091 0001838 271.4849  98.1228 15.40706816  4851
STARLINK-33907          
1 63769U 25089U   25144.91668981 -.01546214  00000+0 -38479-1 0  9995
2 63769  43.0001 236.8531 0001480 273.3050 119.1020 15.42662940  4795
STARLINK-33884          
1 63770U 25089V   25144.91668981 -.01549427  00000+0 -33185-1 0  9995
2 63770  42.9997 236.7795 0001606 277.0837 145.1730 15.47024706  4798
STARLINK-33841          
1 63771U 25089W   25144.91668981 -.01546246  00000+0 -36038-1 0  9992
2 63771  43.0000 236.8060 0001626 275.9795 135.1507 15.44581099  4795
BIOMASS                 
1 63772U 25090A   25142.07413034  .00001188  00000+0  21024-3 0  9996
2 63772  98.0761 329.9868 0001408  88.9543 271.1823 14.69152786  3324
STARLINK-33769          
1 63773U 25089X   25144.91668981 -.01549547  00000+0 -31019-1 0  9995
2 63773  42.9996 236.7551 0001660 280.5425 151.1474 15.48942514  4836
STARLINK-33914          
1 63774U 25089Y   25144.91668981 -.01536167  00000+0 -35585-1 0  9992
2 63774  42.9998 235.4142 0001200 263.2750 348.8815 15.44741756  4857
STARLINK-33932          
1 63775U 25091A   25144.91668981 -.01548224  00000+0 -27514-1 0  9996
2 63775  42.9999 245.6351 0001358 264.6575  33.9099 15.52257482  4806
STARLINK-33930          
1 63776U 25091B   25144.91668981 -.01548745  00000+0 -27524-1 0  9996
2 63776  42.9999 245.6306 0001327 268.6672  31.8166 15.52257965  4757
STARLINK-33911          
1 63777U 25091C   25144.91668981 -.01549012  00000+0 -27529-1 0  9990
2 63777  42.9999 245.6258 0001328 264.8424  37.5583 15.52258204  4751
STARLINK-33938          
1 63778U 25091D   25144.91668981 -.01547494  00000+0 -27500-1 0  9992
2 63778  43.0000 245.6205 0001362 268.3117  36.0067 15.52257112  4843
STARLINK-33881          
1 63779U 25091E   25144.91668981 -.01547662  00000+0 -27503-1 0  9993
2 63779  43.0000 245.6154 0001403 268.8684  37.3675 15.52257077  4756
STARLINK-33846          
1 63780U 25091F   25144.91668981 -.01549190  00000+0 -27532-1 0  9995
2 63780  43.0000 245.6105 0001346 266.7732  41.3785 15.52258559  4800
STARLINK-33883          
1 63781U 25091G   25144.91668981 -.01545455  00000+0 -27461-1 0  9997
2 63781  43.0000 245.6056 0001414 268.1650  41.9057 15.52255617  4751
STARLINK-33842          
1 63782U 25091H   25144.91668981 -.01547585  00000+0 -27502-1 0  9990
2 63782  43.0000 245.6003 0001321 268.7143  43.2721 15.52257232  4842
STARLINK-33892          
1 63783U 25091J   25144.91668981 -.01544361  00000+0 -27439-1 0  9999
2 63783  43.0000 245.5958 0001548 273.7544  40.1502 15.52255014  4752
STARLINK-33933          
1 63784U 25091K   25144.91668981 -.01548479  00000+0 -27518-1 0  9992
2 63784  42.9999 245.5913 0001369 268.2703  47.5493 15.52258391  4869
STARLINK-33906          
1 63785U 25091L   25144.91668981 -.01547686  00000+0 -27503-1 0  9996
2 63785  42.9999 245.5860 0001394 269.3342  48.4032 15.52257610  4705
STARLINK-33923          
1 63786U 25091M   25144.91668981 -.01547208  00000+0 -27494-1 0  9996
2 63786  42.9999 245.5814 0001364 267.9743  51.6799 15.52257467  4707
STARLINK-33947          
1 63787U 25091N   25144.91668981 -.01547273  00000+0 -27495-1 0  9990
2 63787  42.9999 245.5769 0001376 268.9260  52.6450 15.52257650  4759
STARLINK-33882          
1 63788U 25091P   25144.91668981 -.01546367  00000+0 -27478-1 0  9995
2 63788  42.9999 245.5720 0001396 266.0082  57.4809 15.52256690  4754
STARLINK-33875          
1 63789U 25091Q   25144.91668981 -.01546584  00000+0 -27482-1 0  9992
2 63789  42.9999 245.5658 0001413 268.3589  57.0474 15.52256808  4757
STARLINK-33869          
1 63790U 25091R   25144.91668981 -.01546472  00000+0 -27480-1 0  9998
2 63790  42.9999 245.5619 0001364 268.7358  58.5867 15.52257006  4707
STARLINK-33935          
1 63791U 25091S   25144.91668981 -.01546587  00000+0 -27481-1 0  9997
2 63791  42.9999 245.5567 0001413 271.9267  57.3115 15.52257863  4861
STARLINK-33916          
1 63792U 25091T   25144.91668981 -.01547127  00000+0 -27492-1 0  9991
2 63792  42.9999 245.5517 0001428 266.1689  64.9882 15.52257355  4756
STARLINK-33925          
1 63793U 25091U   25144.91668981 -.01546141  00000+0 -27473-1 0  9996
2 63793  42.9999 245.5473 0001401 272.0507  61.0226 15.52257210  4866
STARLINK-33870          
1 63794U 25091V   25144.91668981 -.01545624  00000+0 -27463-1 0  9991
2 63794  42.9999 245.5431 0001411 272.0944  62.8958 15.52256964  4751
STARLINK-33867          
1 63795U 25091W   25144.91668981 -.01546033  00000+0 -27471-1 0  9996
2 63795  42.9999 245.5384 0001421 271.0327  65.8751 15.52256917  4756
STARLINK-33918          
1 63796U 25091X   25144.91668981 -.01546257  00000+0 -27475-1 0  9999
2 63796  42.9999 245.5341 0001465 272.2985  66.5266 15.52256953  4806
STARLINK-33712          
1 63797U 25091Y   25144.91668981 -.00000351  00000+0 -11453-5 0  9992
2 63797  42.9995 248.1231 0001449 270.8829  97.3643 15.40704256  4759
STARLINK-33827          
1 63798U 25091Z   25144.91668981 -.01546286  00000+0 -27476-1 0  9994
2 63798  42.9999 245.5228 0001425 272.7614  69.8977 15.52256853  4750
STARLINK-33899          
1 63799U 25091AA  25144.91668981 -.01546371  00000+0 -27477-1 0  9991
2 63799  42.9999 245.5181 0001413 271.5657  73.0094 15.52257622  4864
STARLINK-33900          
1 63800U 25091AB  25144.91668981 -.01546542  00000+0 -27480-1 0  9998
2 63800  42.9999 245.5130 0001431 272.2477  74.2443 15.52257840  4862
STARLINK-33975          
1 63802U 25091AC  25144.91668981 -.01545797  00000+0 -27466-1 0  9995
2 63802  42.9999 245.5080 0001427 273.4171  74.9923 15.52257237  4867
STARLINK-33951          
1 63803U 25091AD  25144.91668981 -.01545404  00000+0 -27459-1 0  9993
2 63803  42.9998 245.5035 0001424 270.3828  79.9447 15.52256529  4802
STARLINK-33909          
1 63804U 25092A   25144.91668981 -.01719372  00000+0 -24618-1 0  9996
2 63804  42.9999   7.3210 0001497 283.6265 133.5184 15.58371213  4433
STARLINK-34029          
1 63805U 25092B   25144.91668981 -.01721085  00000+0 -24645-1 0  9991
2 63805  43.0000   7.3168 0001288 280.4528 138.6075 15.58373561  4439
STARLINK-34102          
1 63806U 25092C   25144.91668981 -.01720793  00000+0 -24641-1 0  9993
2 63806  43.0001   7.3116 0001253 279.1175 141.8603 15.58373169  4481
STARLINK-34109          
1 63807U 25092D   25144.91668981 -.01712445  00000+0 -24513-1 0  9997
2 63807  43.0001   7.3068 0001302 282.5194 140.3795 15.58366856  4438
STARLINK-34091          
1 63808U 25092E   25144.91668981 -.01719146  00000+0 -24616-1 0  9997
2 63808  43.0000   7.3018 0001329 282.9935 141.8200 15.58371039  4480
STARLINK-34095          
1 63809U 25092F   25144.91668981 -.01718887  00000+0 -24613-1 0  9996
2 63809  43.0000   7.2967 0001236 280.3621 146.3693 15.58370665  4439
STARLINK-34127          
1 63810U 25092G   25144.91668981 -.01719859  00000+0 -24626-1 0  9992
2 63810  43.0001   7.2918 0001404 284.3085 144.3381 15.58371855  4437
STARLINK-34110          
1 63811U 25092H   25144.91668981 -.01720603  00000+0 -24638-1 0  9995
2 63811  43.0001   7.2873 0001385 284.6149 145.9494 15.58371918  4487
